COMMENT,ORIGINATOR,NORAD_CAT_ID,OBJECT_NAME,OBJECT_TYPE,CLASSIFICATION_TYPE,INTLDES,EPOCH,EPOCH_MICROSECONDS,MEAN_MOTION,ECCENTRICITY,INCLINATION,RA_OF_ASC_NODE,ARG_OF_PERICENTER,MEAN_ANOMALY,EPHEMERIS_TYPE,ELEMENT_SET_NO,REV_AT_EPOCH,BSTAR,MEAN_MOTION_DOT,MEAN_MOTION_DDOT,FILE,TLE_LINE0,TLE_LINE1,TLE_LINE2,OBJECT_ID,OBJECT_NUMBER,SEMIMAJOR_AXIS,PERIOD,APOGEE,PERIGEE,DECAYED
"GENERATED VIA SPACETRACK.ORG API","18 SPCS","55100","SPACEBEE-158","PAYLOAD","U","23001CV","2023-06-07 17:05:06","820800","15.19629275","0.0015898","97.4768","218.9035","41.9655","318.2795","0","999","2366","0.00078186","0.00016671","0","3927338","0 SPACEBEE-158","1 55100U 23001CV  23158.71188450  .00016671  00000-0  78186-3 0  9994","2 55100  97.4768 218.9035 0015898  41.9655 318.2795 15.19629275 23662","2023-001CV","55100","6885.097","94.760","517.908","496.016","0"
"GENERATED VIA SPACETRACK.ORG API","18 SPCS","55100","SPACEBEE-158","PAYLOAD","U","23001CV","2023-06-07 17:05:06","820800","15.19629275","0.0015898","97.4768","218.9035","41.9655","318.2795","0","999","2366","0.00078186","0.00016671","0","3927436","0 SPACEBEE-158","1 55100U 23001CV  23158.71188450  .00016671  00000-0  78186-3 0  9994","2 55100  97.4768 218.9035 0015898  41.9655 318.2795 15.19629275 23662","2023-001CV","55100","6885.097","94.760","517.908","496.016","0"
"GENERATED VIA SPACETRACK.ORG API","18 SPCS","55100","SPACEBEE-158","PAYLOAD","U","23001CV","2023-06-08 02:34:01","896960","15.19644845","0.0015877","97.4769","219.2949","40.6869","319.5548","0","999","2372","0.00081128","0.0001731","0","3928007","0 SPACEBEE-158","1 55100U 23001CV  23159.10696640  .00017310  00000-0  81128-3 0  9994","2 55100  97.4769 219.2949 0015877  40.6869 319.5548 15.19644845 23728","2023-001CV","55100","6885.050","94.759","517.847","495.984","0"
"GENERATED VIA SPACETRACK.ORG API","18 SPCS","55100","SPACEBEE-158","PAYLOAD","U","23001CV","2023-06-09 03:51:07","295040","15.19680321","0.001577","97.477","220.3388","37.3412","322.8915","0","999","2388","0.00074703","0.00015946","0","3928763","0 SPACEBEE-158","1 55100U 23001CV  23160.16050110  .00015946  00000-0  74703-3 0  9992","2 55100  97.4770 220.3388 0015770  37.3412 322.8915 15.19680321 23880","2023-001CV","55100","6884.943","94.757","517.666","495.950","0"
"GENERATED VIA SPACETRACK.ORG API","18 SPCS","55100","SPACEBEE-158","PAYLOAD","U","23001CV","2023-06-09 03:51:07","295040","15.19680321","0.001577","97.477","220.3388","37.3412","322.8915","0","999","2388","0.00074703","0.00015946","0","3928876","0 SPACEBEE-158","1 55100U 23001CV  23160.16050110  .00015946  00000-0  74703-3 0  9992","2 55100  97.4770 220.3388 0015770  37.3412 322.8915 15.19680321 23880","2023-001CV","55100","6884.943","94.757","517.666","495.950","0"
"GENERATED VIA SPACETRACK.ORG API","18 SPCS","55100","SPACEBEE-158","PAYLOAD","U","23001CV","2023-06-09 16:29:39","347808","15.19693626","0.0015706","97.477","220.8607","35.4854","324.7423","0","999","2396","0.00068011","0.00014514","0","3929125","0 SPACEBEE-158","1 55100U 23001CV  23160.68726097  .00014514  00000-0  68011-3 0  9998","2 55100  97.4770 220.8607 0015706  35.4854 324.7423 15.19693626 23963","2023-001CV","55100","6884.903","94.756","517.581","495.954","0"
"GENERATED VIA SPACETRACK.ORG API","18 SPCS","55100","SPACEBEE-158","PAYLOAD","U","23001CV","2023-06-10 09:52:37","642656","15.19714722","0.0015681","97.4771","221.5784","32.7209","327.4993","0","999","2407","0.00070673","0.00015095","0","3929617","0 SPACEBEE-158","1 55100U 23001CV  23161.41154679  .00015095  00000-0  70673-3 0  9993","2 55100  97.4771 221.5784 0015681  32.7209 327.4993 15.19714722 24070","2023-001CV","55100","6884.839","94.755","517.500","495.908","0"
"GENERATED VIA SPACETRACK.ORG API","18 SPCS","55100","SPACEBEE-158","PAYLOAD","U","23001CV","2023-06-10 09:52:37","642656","15.19714722","0.0015681","97.4771","221.5784","32.7209","327.4993","0","999","2407","0.00070673","0.00015095","0","3929709","0 SPACEBEE-158","1 55100U 23001CV  23161.41154679  .00015095  00000-0  70673-3 0  9993","2 55100  97.4771 221.5784 0015681  32.7209 327.4993 15.19714722 24070","2023-001CV","55100","6884.839","94.755","517.500","495.908","0"
"GENERATED VIA SPACETRACK.ORG API","18 SPCS","55100","SPACEBEE-158","PAYLOAD","U","23001CV","2023-06-10 20:56:19","706784","15.1972923","0.0015585","97.4771","222.0352","31.0669","329.1484","0","999","2414","0.00072661","0.00015528","0","3929969","0 SPACEBEE-158","1 55100U 23001CV  23161.87245031  .00015528  00000-0  72661-3 0  9996","2 55100  97.4771 222.0352 0015585  31.0669 329.1484 15.19729230 24144","2023-001CV","55100","6884.795","94.754","517.390","495.930","0"
"GENERATED VIA SPACETRACK.ORG API","18 SPCS","55100","SPACEBEE-158","PAYLOAD","U","23001CV","2023-06-11 09:34:50","113632","15.19747979","0.001551","97.4771","222.557","29.0994","331.1102","0","999","2422","0.00078809","0.0001686","0","3930529","0 SPACEBEE-158","1 55100U 23001CV  23162.39919113  .00016860  00000-0  78809-3 0  9993","2 55100  97.4771 222.5570 0015510  29.0994 331.1102 15.19747979 24226","2023-001CV","55100","6884.739","94.753","517.282","495.925","0"
"GENERATED VIA SPACETRACK.ORG API","18 SPCS","55100","SPACEBEE-158","PAYLOAD","U","23001CV","2023-06-11 14:19:16","385088","15.19755427","0.0015478","97.4771","222.7527","28.3295","331.8778","0","999","2425","0.00081457","0.00017433","0","3930664","0 SPACEBEE-158","1 55100U 23001CV  23162.59671742  .00017433  00000-0  81457-3 0  9998","2 55100  97.4771 222.7527 0015478  28.3295 331.8778 15.19755427 24255","2023-001CV","55100","6884.716","94.752","517.237","495.925","0"
"GENERATED VIA SPACETRACK.ORG API","18 SPCS","55100","SPACEBEE-158","PAYLOAD","U","23001CV","2023-06-11 19:03:42","550272","15.19763672","0.0015479","97.477","222.9482","27.4891","332.7159","0","999","2428","0.00085917","0.00018398","0","3930737","0 SPACEBEE-158","1 55100U 23001CV  23162.79424248  .00018398  00000-0  85917-3 0  9993","2 55100  97.4770 222.9482 0015479  27.4891 332.7159 15.19763672 24286","2023-001CV","55100","6884.691","94.752","517.213","495.899","0"
"GENERATED VIA SPACETRACK.ORG API","18 SPCS","55100","SPACEBEE-158","PAYLOAD","U","23001CV","2023-06-12 02:57:46","9152","15.19774007","0.0015453","97.4771","223.2744","26.3667","333.8351","0","999","2433","0.00079121","0.00016939","0","3931287","0 SPACEBEE-158","1 55100U 23001CV  23163.12344918  .00016939  00000-0  79121-3 0  9995","2 55100  97.4771 223.2744 0015453  26.3667 333.8351 15.19774007 24339","2023-001CV","55100","6884.660","94.751","517.164","495.886","0"
"GENERATED VIA SPACETRACK.ORG API","18 SPCS","55100","SPACEBEE-158","PAYLOAD","U","23001CV","2023-06-12 21:55:29","567424","15.19800007","0.0015345","97.4775","224.0575","23.6535","336.5402","0","999","2445","0.00082168","0.00017608","0","3931605","0 SPACEBEE-158","1 55100U 23001CV  23163.91353666  .00017608  00000-0  82168-3 0  9991","2 55100  97.4775 224.0575 0015345  23.6535 336.5402 15.19800007 24458","2023-001CV","55100","6884.582","94.749","517.011","495.882","0"
"GENERATED VIA SPACETRACK.ORG API","18 SPCS","55100","SPACEBEE-158","PAYLOAD","U","23001CV","2023-06-13 02:39:55","309248","15.19805288","0.0015326","97.4774","224.253","23.1028","337.0892","0","999","2448","0.00078734","0.0001687","0","3931788","0 SPACEBEE-158","1 55100U 23001CV  23164.11105682  .00016870  00000-0  78734-3 0  9991","2 55100  97.4774 224.2530 0015326  23.1028 337.0892 15.19805288 24489","2023-001CV","55100","6884.566","94.749","516.982","495.879","0"
"GENERATED VIA SPACETRACK.ORG API","18 SPCS","55100","SPACEBEE-158","PAYLOAD","U","23001CV","2023-06-13 02:39:55","309248","15.19805288","0.0015326","97.4774","224.253","23.1028","337.0892","0","999","2448","0.00078734","0.0001687","0","3932134","0 SPACEBEE-158","1 55100U 23001CV  23164.11105682  .00016870  00000-0  78734-3 0  9991","2 55100  97.4774 224.2530 0015326  23.1028 337.0892 15.19805288 24489","2023-001CV","55100","6884.566","94.749","516.982","495.879","0"
"GENERATED VIA SPACETRACK.ORG API","18 SPCS","55100","SPACEBEE-158","PAYLOAD","U","23001CV","2023-06-13 21:37:37","778016","15.19821217","0.0015233","97.4777","225.0359","20.591","339.5936","0","999","2460","0.00063743","0.00013645","0","3932371","0 SPACEBEE-158","1 55100U 23001CV  23164.90113169  .00013645  00000-0  63743-3 0  9998","2 55100  97.4777 225.0359 0015233  20.5910 339.5936 15.19821217 24608","2023-001CV","55100","6884.517","94.748","516.870","495.895","0"
"GENERATED VIA SPACETRACK.ORG API","18 SPCS","55100","SPACEBEE-158","PAYLOAD","U","23001CV","2023-06-13 21:37:37","778016","15.19821217","0.0015233","97.4777","225.0359","20.591","339.5936","0","999","2460","0.00063743","0.00013645","0","3932556","0 SPACEBEE-158","1 55100U 23001CV  23164.90113169  .00013645  00000-0  63743-3 0  9998","2 55100  97.4777 225.0359 0015233  20.5910 339.5936 15.19821217 24608","2023-001CV","55100","6884.517","94.748","516.870","495.895","0"
"GENERATED VIA SPACETRACK.ORG API","18 SPCS","55100","SPACEBEE-158","PAYLOAD","U","23001CV","2023-06-14 02:22:03","235584","15.19825609","0.00152","97.4777","225.2316","19.9142","340.2683","0","999","2463","0.0005898","0.0001262","0","3933215","0 SPACEBEE-158","1 55100U 23001CV  23165.09864856  .00012620  00000-0  58980-3 0  9994","2 55100  97.4777 225.2316 0015200  19.9142 340.2683 15.19825609 24636","2023-001CV","55100","6884.504","94.748","516.834","495.905","0"
"GENERATED VIA SPACETRACK.ORG API","18 SPCS","55100","SPACEBEE-158","PAYLOAD","U","23001CV","2023-06-14 22:54:32","745888","15.19851119","0.0015107","97.4778","226.0799","17.1288","343.0454","0","999","2476","0.00060895","0.00013042","0","3933423","0 SPACEBEE-158","1 55100U 23001CV  23165.95454567  .00013042  00000-0  60895-3 0  9990","2 55100  97.4778 226.0799 0015107  17.1288 343.0454 15.19851119 24764","2023-001CV","55100","6884.427","94.746","516.692","495.892","0"
